COSMOS 2058             
1 20465U 90010A   26160.92187194  .00003305  00000+0  19091-3 0  9996
2 20465  82.4660 316.5209 0010119  25.9224 334.2511 15.11963578956170
SL-14 R/B               
1 20466U 90010B   26161.08634220  .00000320  00000+0  35851-4 0  9999
2 20466  82.5016 180.6136 0019726   0.0902   0.0313 14.83641690942186
SL-14 R/B               
1 20511U 90018B   26161.19304998  .00000345  00000+0  40223-4 0  9992
2 20511  82.5206 136.6449 0017034 143.2497 216.9889 14.82211522936281
HST                     
1 20580U 90037B   26161.23228164  .00005211  00000+0  16320-3 0  9991
2 20580  28.4709 128.1050 0001976  72.5591 287.5221 15.30670250787509
SL-16 R/B               
1 20625U 90046B   26161.16180834  .00000306  00000+0  18259-3 0  9997
2 20625  70.9987 103.7021 0013933 172.3001 187.8338 14.15022727861479
COSMOS 2084             
1 20663U 90055A   26160.95726193  .00001825  00000+0  13800-3 0  9993
2 20663  62.7912  20.7675 0005485 265.8173  94.2301 15.06086664950215
SL-6 R/B(2)             
1 20666U 90055D   26160.73566698  .00001540  00000+0  12390-3 0  9991
2 20666  62.7827 300.7324 0039429   4.1446 355.9972 15.03978234952030
SL-8 R/B                
1 20775U 90078B   26161.08708287  .00018269  00000+0  51423-3 0  9994
2 20775  82.9014 168.0579 0352508  62.3619 301.2917 14.92042601823064
SL-8 R/B                
1 21088U 91006B   26161.08127957  .00000039  00000+0  23958-4 0  9992
2 21088  82.9422 101.3197 0023376 133.5122 243.1702 13.77505392776795
OKEAN-3                 
1 21397U 91039A   26160.95950405  .00001750  00000+0  12020-3 0  9996
2 21397  82.5161 247.3897 0014547  23.8127 336.3770 15.05293300878911
COSMOS 2151             
1 21422U 91042A   26161.25740510  .00001250  00000+0  97089-4 0  9991
2 21422  82.4961 354.3693 0013780 104.7466 255.5287 15.00417931877077
SL-14 R/B               
1 21423U 91042B   26161.19811427  .00000349  00000+0  41080-4 0  9999
2 21423  82.4923 133.4497 0015607 300.0620  59.9045 14.81898038866779
ERS-1                   
1 21574U 91050A   26161.28356235  .00000243  00000+0  92552-4 0  9999
2 21574  98.7798 181.8128 0030749 288.3223  71.4620 14.39512853829054
ARIANE 40 R/B           
1 21610U 91050F   26161.11474864  .00000238  00000+0  83557-4 0  9990
2 21610  98.1877 209.8068 0003956 136.5666 223.5837 14.42952892832325
INTERCOSMOS 25          
1 21819U 91086A   26161.01381376  .00000413  00000+0  82401-4 0  9996
2 21819  82.6059 254.1505 1484287 277.8819  65.6874 12.12187192507878
SL-8 R/B                
1 21876U 92008B   26161.21910644  .00000103  00000+0  90027-4 0  9991
2 21876  82.9265 198.9683 0033462 234.7298 193.0740 13.75975028722142
SL-8 R/B                
1 21938U 92020B   26161.15558591  .00000042  00000+0  27852-4 0  9994
2 21938  82.9306  85.0799 0030128  41.6739  77.6254 13.75548159713847
USA 81                  
1 21949U 92023A   26161.14950804  .00000144  00000+0  45790-4 0  9995
2 21949  85.0078  78.0691 0002768  91.0092 269.1417 14.32396312108025
COSMOS 2219             
1 22219U 92076A   26161.18758998  .00000052  00000+0  51964-4 0  9996
2 22219  71.0574 184.7049 0016271  55.5962 304.6697 14.14095808731459
SL-16 R/B               
1 22220U 92076B   26161.27529601 -.00000184  00000+0 -67633-4 0  9993
2 22220  71.0005 353.3424 0014522 307.6846 230.2971 14.16871454734947
COSMOS 2221             
1 22236U 92080A   26161.31895798  .00001181  00000+0  10151-3 0  9991
2 22236  82.5032 190.3450 0012778 237.4635 122.5354 14.96515685794646
SL-16 R/B               
1 22285U 92093B   26161.31683723 -.00000198  00000+0 -77213-4 0  9994
2 22285  71.0200 169.8145 0004341 198.8483 161.2480 14.15464216726267
COSMOS 2228             
1 22286U 92094A   26161.27242529  .00001760  00000+0  14813-3 0  9996
2 22286  82.5170 148.6660 0017607 356.2144   3.8942 14.97561287789912
SL-16 R/B               
1 22566U 93016B   26161.01348127  .00000186  00000+0  12017-3 0  9990
2 22566  71.0080  21.2751 0010668 193.8398 166.2434 14.15309578715236
COSMOS 2242             
1 22626U 93024A   26161.29557114  .00001399  00000+0  11943-3 0  9998
2 22626  82.5179 178.1363 0016040   0.0096   0.1124 14.96882727794245
SL-16 R/B               
1 22803U 93059B   26161.29071916  .00000282  00000+0  16334-3 0  9993
2 22803  70.9883 175.8474 0015037  66.0040 294.2657 14.17245572692651
ARIANE 40 R/B           
1 22830U 93061H   26161.15274633  .00000157  00000+0  73048-4 0  9999
2 22830  98.4819 228.1557 0010913  17.2020 342.9532 14.32904925707340
COSMOS 2278             
1 23087U 94023A   26161.24536347  .00000334  00000+0  19894-3 0  9991
2 23087  71.0545 341.4497 0010585 251.0865 108.9111 14.14394426657896
SL-16 R/B               
1 23088U 94023B   26160.96744958  .00000249  00000+0  15319-3 0  9992
2 23088  70.9994 237.0933 0003231 193.7928 166.3106 14.15020400659141
SL-16 R/B               
1 23343U 94074B   26161.04449645  .00000357  00000+0  54286-4 0  9994
2 23343  97.6993 188.0629 0005107 283.7491 129.5036 14.79496236700904
