OBJECT_NAME,OBJECT_ID,EPOCH,MEAN_MOTION,ECCENTRICITY,INCLINATION,RA_OF_ASC_NODE,ARG_OF_PERICENTER,MEAN_ANOMALY,EPHEMERIS_TYPE,CLASSIFICATION_TYPE,NORAD_CAT_ID,ELEMENT_SET_NO,REV_AT_EPOCH,BSTAR,MEAN_MOTION_DOT,MEAN_MOTION_DDOT
COSMOS 2058,1990-010A,2026-06-09T22:07:29.735616,15.11963578,.00101193,82.4660,316.5209,25.9224,334.2511,0,U,20465,999,95617,.19090892E-3,.3305E-4,0
SL-14 R/B,1990-010B,2026-06-10T02:04:19.966080,14.83641690,.00197264,82.5016,180.6136,0.0902,0.0313,0,U,20466,999,94218,.35851353E-4,.32E-5,0
SL-14 R/B,1990-018B,2026-06-10T04:37:59.518272,14.82211522,.00170348,82.5206,136.6449,143.2497,216.9889,0,U,20511,999,93628,.4022324E-4,.345E-5,0
HST,1990-037B,2026-06-10T05:34:29.133696,15.30670250,.00019766,28.4709,128.1050,72.5591,287.5221,0,U,20580,999,78750,.16320419E-3,.5211E-4,0
SL-16 R/B,1990-046B,2026-06-10T03:53:00.240576,14.15022727,.00139331,70.9987,103.7021,172.3001,187.8338,0,U,20625,999,86147,.18258574E-3,.306E-5,0
COSMOS 2084,1990-055A,2026-06-09T22:58:27.430752,15.06086664,.00054852,62.7912,20.7675,265.8173,94.2301,0,U,20663,999,95021,.13800269E-3,.1825E-4,0
SL-6 R/B(2),1990-055D,2026-06-09T17:39:21.627072,15.03978234,.0039429,62.7827,300.7324,4.1446,355.9972,0,U,20666,999,95203,.1239E-3,.154E-4,0
SL-8 R/B,1990-078B,2026-06-10T02:05:23.959968,14.92042601,.03525087,82.9014,168.0579,62.3619,301.2917,0,U,20775,999,82306,.51423101E-3,.18269E-3,0
SL-8 R/B,1991-006B,2026-06-10T01:57:02.554848,13.77505392,.00233761,82.9422,101.3197,133.5122,243.1702,0,U,21088,999,77679,.23957816E-4,.39E-6,0
OKEAN-3,1991-039A,2026-06-09T23:01:41.149920,15.05293300,.00145478,82.5161,247.3897,23.8127,336.3770,0,U,21397,999,87891,.12019972E-3,.175E-4,0
COSMOS 2151,1991-042A,2026-06-10T06:10:39.800640,15.00417931,.00137803,82.4961,354.3693,104.7466,255.5287,0,U,21422,999,87707,.97088639E-4,.125E-4,0
SL-14 R/B,1991-042B,2026-06-10T04:45:17.072928,14.81898038,.0015607,82.4923,133.4497,300.0620,59.9045,0,U,21423,999,86677,.41080488E-4,.349E-5,0
ERS-1,1991-050A,2026-06-10T06:48:19.787040,14.39512853,.00307499,98.7798,181.8128,288.3223,71.4620,0,U,21574,999,82905,.92551652E-4,.243E-5,0
ARIANE 40 R/B,1991-050F,2026-06-10T02:45:14.282496,14.42952892,.00039567,98.1877,209.8068,136.5666,223.5837,0,U,21610,999,83232,.83556615E-4,.238E-5,0
INTERCOSMOS 25,1991-086A,2026-06-10T00:19:53.508864,12.12187192,.1484287,82.6059,254.1505,277.8819,65.6874,0,U,21819,999,50787,.82400604E-4,.413E-5,0
SL-8 R/B,1992-008B,2026-06-10T05:15:30.796416,13.75975028,.00334626,82.9265,198.9683,234.7298,193.0740,0,U,21876,999,72214,.90027008E-4,.103E-5,0
SL-8 R/B,1992-020B,2026-06-10T03:44:02.622624,13.75548159,.00301288,82.9306,85.0799,41.6739,77.6254,0,U,21938,999,71384,.27851687E-4,.42E-6,0
USA 81,1992-023A,2026-06-10T03:35:17.494656,14.32396312,.00027685,85.0078,78.0691,91.0092,269.1417,0,U,21949,999,10802,.45790392E-4,.144E-5,0
COSMOS 2219,1992-076A,2026-06-10T04:30:07.774272,14.14095808,.00162713,71.0574,184.7049,55.5962,304.6697,0,U,22219,999,73145,.51964498E-4,.52E-6,0
SL-16 R/B,1992-076B,2026-06-10T06:36:25.575264,14.16871454,.00145223,71.0005,353.3424,307.6846,230.2971,0,U,22220,999,73494,-.6763272E-4,-.184E-5,0
COSMOS 2221,1992-080A,2026-06-10T07:39:17.969472,14.96515685,.00127781,82.5032,190.3450,237.4635,122.5354,0,U,22236,999,79464,.10150574E-3,.1181E-4,0
SL-16 R/B,1992-093B,2026-06-10T07:36:14.736672,14.15464216,.00043413,71.0200,169.8145,198.8483,161.2480,0,U,22285,999,72626,-.7721297E-4,-.198E-5,0
COSMOS 2228,1992-094A,2026-06-10T06:32:17.545056,14.97561287,.00176079,82.5170,148.6660,356.2144,3.8942,0,U,22286,999,78991,.14812567E-3,.176E-4,0
SL-16 R/B,1993-016B,2026-06-10T00:19:24.781728,14.15309578,.00106689,71.0080,21.2751,193.8398,166.2434,0,U,22566,999,71523,.12016532E-3,.186E-5,0
COSMOS 2242,1993-024A,2026-06-10T07:05:37.346496,14.96882727,.00160408,82.5179,178.1363,0.0096,0.1124,0,U,22626,999,79424,.11942652E-3,.1399E-4,0
SL-16 R/B,1993-059B,2026-06-10T06:58:38.135424,14.17245572,.00150376,70.9883,175.8474,66.0040,294.2657,0,U,22803,999,69265,.1633418E-3,.282E-5,0
ARIANE 40 R/B,1993-061H,2026-06-10T03:39:57.282912,14.32904925,.00109135,98.4819,228.1557,17.2020,342.9532,0,U,22830,999,70734,.73047724E-4,.157E-5,0
COSMOS 2278,1994-023A,2026-06-10T05:53:19.403808,14.14394426,.00105856,71.0545,341.4497,251.0865,108.9111,0,U,23087,999,65789,.19894224E-3,.334E-5,0
SL-16 R/B,1994-023B,2026-06-09T23:13:07.643712,14.15020400,.00032318,70.9994,237.0933,193.7928,166.3106,0,U,23088,999,65914,.15318739E-3,.249E-5,0
SL-16 R/B,1994-074B,2026-06-10T01:04:04.493280,14.79496236,.00051077,97.6993,188.0629,283.7491,129.5036,0,U,23343,999,70090,.54285675E-4,.357E-5,0
